EUTELSAT 21B            
1 38992U 12062B   25304.14142013  .00000140  00000+0  00000+0 0  9995
2 38992   0.0730  13.4424 0003006 218.0272 240.7524  1.00271532 47536
EUTELSAT 70B            
1 39020U 12069A   25304.62549550 -.00000033  00000+0  00000+0 0  9997
2 39020   0.0666 354.0175 0004382 224.3678 117.4843  1.00271445 47214
EUTELSAT 117 WEST A     
1 39122U 13012A   25304.58857530 -.00000003  00000+0  00000+0 0  9991
2 39122   0.0172 332.2780 0003082 257.8286 265.1546  1.00271165 46142
EUTELSAT 7B             
1 39163U 13022A   25304.61310211  .00000059  00000+0  00000+0 0  9991
2 39163   0.0777  26.7514 0002432 280.1426 321.0071  1.00272333 45660
EXPRESS-AT1             
1 39612U 14010A   25304.69415660  .00000089  00000+0  00000+0 0  9993
2 39612   0.0142 250.1360 0000497 241.9435 214.0780  1.00270469 42529
EXPRESS-AT2             
1 39613U 14010B   25304.63946964 -.00000271  00000+0  00000+0 0  9998
2 39613   0.0149 255.1999 0000616  40.0906 114.9867  1.00269123 42208
EUTELSAT 3B             
1 39773U 14030A   25304.68238898  .00000030  00000+0  00000+0 0  9994
2 39773   0.0717  25.0631 0004535 186.5636  77.3696  1.00270837 41770
EUTELSAT 115 WEST B     
1 40425U 15010B   25304.44986678 -.00000015  00000+0  00000+0 0  9993
2 40425   0.0149  98.1621 0000420 229.1059 119.8117  1.00270888 39095
